{
  "type": "FeatureCollection",
  "generator": "overpass-turbo",
  "copyright": "The data included in this document is from www.openstreetmap.org. The data is made available under ODbL.",
  "timestamp": "2024-03-26T21:22:14Z",
  "features": [
    {
      "type": "Feature",
      "properties": {
        "@id": "node/317180461",
        "amenity": "nightclub",
        "name": "la Font del Balç"
      },
      "geometry": {
        "type": "Point",
        "coordinates": [
          1.8786451,
          42.0384133
        ]
      },
      "id": "node/317180461"
    },
    {
      "type": "Feature",
      "properties": {
        "@id": "node/805202229",
        "amenity": "nightclub",
        "contact:website": "http://www.sunsetjazz-club.com/",
        "name": "Sunset Jazzclub"
      },
      "geometry": {
        "type": "Point",
        "coordinates": [
          2.8242557,
          41.9889466
        ]
      },
      "id": "node/805202229"
    },
    {
      "type": "Feature",
      "properties": {
        "@id": "node/805202318",
        "amenity": "nightclub",
        "name": "El Pati del Rabí"
      },
      "geometry": {
        "type": "Point",
        "coordinates": [
          2.8252328,
          41.9870099
        ]
      },
      "id": "node/805202318"
    },
    {
      "type": "Feature",
      "properties": {
        "@id": "node/838773538",
        "amenity": "nightclub",
        "name": "Cocteleria \"Skiros\""
      },
      "geometry": {
        "type": "Point",
        "coordinates": [
          2.3866685,
          41.506437
        ]
      },
      "id": "node/838773538"
    },
    {
      "type": "Feature",
      "properties": {
        "@id": "node/843363548",
        "addr:city": "Vilassar de Mar",
        "addr:postcode": "08340",
        "addr:street": "Plaça Can Mi",
        "amenity": "nightclub",
        "contact:facebook": "https://es-es.facebook.com/pages/Burriac-Caf%C3%A8/483943308295210",
        "name": "Burriac Café",
        "opening_hours": "19:00-05:00",
        "phone": "+34 93 7 59 42 21"
      },
      "geometry": {
        "type": "Point",
        "coordinates": [
          2.392382,
          41.5026565
        ]
      },
      "id": "node/843363548"
    },
    {
      "type": "Feature",
      "properties": {
        "@id": "node/895569899",
        "amenity": "nightclub",
        "name": "Fata Morgana"
      },
      "geometry": {
        "type": "Point",
        "coordinates": [
          3.1096754,
          42.1600031
        ]
      },
      "id": "node/895569899"
    },
    {
      "type": "Feature",
      "properties": {
        "@id": "node/995925448",
        "amenity": "nightclub",
        "name": "Zero"
      },
      "geometry": {
        "type": "Point",
        "coordinates": [
          1.2494906,
          41.1126101
        ]
      },
      "id": "node/995925448"
    },
    {
      "type": "Feature",
      "properties": {
        "@id": "node/1314468423",
        "addr:city": "L'Hospitalet de Llobregat",
        "addr:housenumber": "235",
        "addr:postcode": "08907",
        "addr:street": "Avinguda del Carrilet",
        "amenity": "nightclub",
        "email": "salamandra@salamandra.cat",
        "min_age": "18",
        "name": "Salamandra 1",
        "operator": "Salamandrabcn, S.L.",
        "phone": "+34 933 37 06 02"
      },
      "geometry": {
        "type": "Point",
        "coordinates": [
          2.109424,
          41.3600758
        ]
      },
      "id": "node/1314468423"
    },
    {
      "type": "Feature",
      "properties": {
        "@id": "node/1502974123",
        "amenity": "nightclub",
        "name": "Canela Premium"
      },
      "geometry": {
        "type": "Point",
        "coordinates": [
          2.1610503,
          41.4091036
        ]
      },
      "id": "node/1502974123"
    },
    {
      "type": "Feature",
      "properties": {
        "@id": "node/1635346082",
        "amenity": "nightclub",
        "name": "Tropical"
      },
      "geometry": {
        "type": "Point",
        "coordinates": [
          1.1493852,
          41.0721088
        ]
      },
      "id": "node/1635346082"
    },
    {
      "type": "Feature",
      "properties": {
        "@id": "node/1879723762",
        "amenity": "nightclub",
        "name": "Sala El Cau"
      },
      "geometry": {
        "type": "Point",
        "coordinates": [
          1.256339,
          41.1170742
        ]
      },
      "id": "node/1879723762"
    },
    {
      "type": "Feature",
      "properties": {
        "@id": "node/1879723763",
        "amenity": "nightclub",
        "name": "Totem"
      },
      "geometry": {
        "type": "Point",
        "coordinates": [
          1.2510223,
          41.1177071
        ]
      },
      "id": "node/1879723763"
    },
    {
      "type": "Feature",
      "properties": {
        "@id": "node/1886635516",
        "addr:city": "Barcelona",
        "addr:country": "ES",
        "addr:housename": "Mojito Club",
        "addr:housenumber": "217",
        "addr:postcode": "08008",
        "addr:street": "Carrer del Rosselló",
        "amenity": "nightclub",
        "name": "Mojito Club",
        "opening_hours": "Th-Sa 23:00-06:00; Su 21:00-02:00",
        "website": "https://www.mojitobcn.com/"
      },
      "geometry": {
        "type": "Point",
        "coordinates": [
          2.1568896,
          41.393099
        ]
      },
      "id": "node/1886635516"
    },
    {
      "type": "Feature",
      "properties": {
        "@id": "node/2046449139",
        "amenity": "nightclub",
        "name": "Faktoria d'Arts",
        "website": "http://www.faktoria.org/rasa/",
        "wheelchair": "yes"
      },
      "geometry": {
        "type": "Point",
        "coordinates": [
          2.0100215,
          41.5643135
        ]
      },
      "id": "node/2046449139"
    },
    {
      "type": "Feature",
      "properties": {
        "@id": "node/2056514582",
        "amenity": "nightclub",
        "name": "Hell awaits"
      },
      "geometry": {
        "type": "Point",
        "coordinates": [
          2.1702374,
          41.3755945
        ]
      },
      "id": "node/2056514582"
    },
    {
      "type": "Feature",
      "properties": {
        "@id": "node/2056514584",
        "amenity": "nightclub",
        "name": "Bonker"
      },
      "geometry": {
        "type": "Point",
        "coordinates": [
          2.1586905,
          41.3738977
        ]
      },
      "id": "node/2056514584"
    },
    {
      "type": "Feature",
      "properties": {
        "@id": "node/2056517880",
        "amenity": "nightclub",
        "name": "Sidecar",
        "sexual_antiharassment_policy": "yes",
        "sexual_antiharassment_policy:name": "NoCallem"
      },
      "geometry": {
        "type": "Point",
        "coordinates": [
          2.1752496,
          41.3805565
        ]
      },
      "id": "node/2056517880"
    },
    {
      "type": "Feature",
      "properties": {
        "@id": "node/2141518501",
        "addr:housename": "Privée",
        "addr:postcode": "43206",
        "addr:street": "Carretera C14 de Reus a Salou, Km 3.",
        "amenity": "nightclub",
        "internet_access": "wlan",
        "name": "Privée",
        "website": "https://www.privee.es/"
      },
      "geometry": {
        "type": "Point",
        "coordinates": [
          1.1242498,
          41.1163485
        ]
      },
      "id": "node/2141518501"
    },
    {
      "type": "Feature",
      "properties": {
        "@id": "node/2247748060",
        "addr:housenumber": "193",
        "addr:street": "Carrer de París",
        "amenity": "nightclub",
        "name": "Club Astoria",
        "source": "+34619473901",
        "website": "https://www.clubastoriabcn.com/"
      },
      "geometry": {
        "type": "Point",
        "coordinates": [
          2.1532409,
          41.3938378
        ]
      },
      "id": "node/2247748060"
    },
    {
      "type": "Feature",
      "properties": {
        "@id": "node/2247754303",
        "addr:housenumber": "141",
        "addr:street": "Carrer d'Aragó",
        "amenity": "nightclub",
        "name": "Antilla Latin Club",
        "opening_hours": "We 22:00-05:00; Th 23:00-05:00; Fr,Sa 23:00-06:00; Su 19:00-sunrise, PH-1day 23:00-05:00",
        "source": "+34 934 51 21 51",
        "website": "https://www.antillasalsa.com/",
        "wheelchair": "no"
      },
      "geometry": {
        "type": "Point",
        "coordinates": [
          2.1545955,
          41.3845653
        ]
      },
      "id": "node/2247754303"
    },
    {
      "type": "Feature",
      "properties": {
        "@id": "node/2247772387",
        "addr:housenumber": "27",
        "addr:street": "la Rambla",
        "amenity": "nightclub",
        "name": "Boulevard Culture Club",
        "name:cs": "caramba",
        "source": "+34 662 30 43 01"
      },
      "geometry": {
        "type": "Point",
        "coordinates": [
          2.1752978,
          41.3786292
        ]
      },
      "id": "node/2247772387"
    },
    {
      "type": "Feature",
      "properties": {
        "@id": "node/2306518670",
        "amenity": "nightclub",
        "name": "el Sielu",
        "opening_hours": "Mo-We 19:00-01:00; Th-Su 19:00-02:30"
      },
      "geometry": {
        "type": "Point",
        "coordinates": [
          1.8218955,
          41.7240312
        ]
      },
      "id": "node/2306518670"
    },
    {
      "type": "Feature",
      "properties": {
        "@id": "node/2343601850",
        "addr:city": "Reus",
        "addr:housenumber": "18",
        "addr:street": "Passeig de Mata",
        "amenity": "nightclub",
        "name": "Sala Japan",
        "website": "http://www.salajapanreus.com/"
      },
      "geometry": {
        "type": "Point",
        "coordinates": [
          1.1018303,
          41.1601028
        ]
      },
      "id": "node/2343601850"
    },
    {
      "type": "Feature",
      "properties": {
        "@id": "node/2343601852",
        "addr:city": "Reus",
        "addr:housenumber": "14",
        "addr:postcode": "43204",
        "addr:street": "Raval de Robuster",
        "amenity": "nightclub",
        "contact:email": "info@soldenit.com",
        "description": "Restaurant & Club",
        "name": "Classix",
        "phone": "+34977300300",
        "smoking": "no",
        "website": "http://www.soldenit.com/"
      },
      "geometry": {
        "type": "Point",
        "coordinates": [
          1.1104831,
          41.1538123
        ]
      },
      "id": "node/2343601852"
    },
    {
      "type": "Feature",
      "properties": {
        "@id": "node/2343601855",
        "addr:city": "Reus",
        "addr:housenumber": "32-34",
        "addr:street": "Passeig de Mata",
        "amenity": "nightclub",
        "email": "info@lafabricareus.com",
        "name": "La Fábrica",
        "phone": "+34681051512",
        "website": "http://www.lafabricareus.com/"
      },
      "geometry": {
        "type": "Point",
        "coordinates": [
          1.1014334,
          41.1596091
        ]
      },
      "id": "node/2343601855"
    },
    {
      "type": "Feature",
      "properties": {
        "@id": "node/2457866965",
        "amenity": "nightclub",
        "name": "Jamboree",
        "sexual_antiharassment_policy": "yes",
        "sexual_antiharassment_policy:name": "NoCallem"
      },
      "geometry": {
        "type": "Point",
        "coordinates": [
          2.1751933,
          41.3797128
        ]
      },
      "id": "node/2457866965"
    },
    {
      "type": "Feature",
      "properties": {
        "@id": "node/2457874856",
        "addr:city": "Barcelona",
        "addr:housenumber": "8",
        "addr:postcode": "08002",
        "addr:street": "Carrer de la Comtessa de Sobradiel",
        "amenity": "nightclub",
        "name": "Harlem Jazz Club",
        "phone": "+34 933 10 07 55",
        "smoking": "no",
        "website": "https://www.harlemjazzclub.es/"
      },
      "geometry": {
        "type": "Point",
        "coordinates": [
          2.1784298,
          41.3811234
        ]
      },
      "id": "node/2457874856"
    },
    {
      "type": "Feature",
      "properties": {
        "@id": "node/2498389547",
        "alt_name": "Arena VIP;Club Dicks;Cuenca Club",
        "amenity": "nightclub",
        "lgbtq": "primary",
        "name": "Sala Tango Noches",
        "opening_hours": "Fr-Sa 01:00-07:00",
        "operator": "Sala Tango",
        "sexual_antiharassment_policy": "yes",
        "sexual_antiharassment_policy:name": "NoCallem",
        "website": "https://www.salatango.com/"
      },
      "geometry": {
        "type": "Point",
        "coordinates": [
          2.1546055,
          41.3808626
        ]
      },
      "id": "node/2498389547"
    },
    {
      "type": "Feature",
      "properties": {
        "@id": "node/2498389550",
        "amenity": "nightclub",
        "lgbtq": "primary",
        "name": "Arena Madre",
        "sexual_antiharassment_policy": "yes",
        "sexual_antiharassment_policy:name": "NoCallem",
        "website": "https://grupoarena.com/sala-arena-madre/"
      },
      "geometry": {
        "type": "Point",
        "coordinates": [
          2.1639901,
          41.3884428
        ]
      },
      "id": "node/2498389550"
    },
    {
      "type": "Feature",
      "properties": {
        "@id": "node/2498389551",
        "amenity": "nightclub",
        "lgbtq": "primary",
        "name": "Aire / Arena Clàssic",
        "sexual_antiharassment_policy": "yes",
        "sexual_antiharassment_policy:name": "NoCallem",
        "website": "https://grupoarena.com/sala-arena-classic/",
        "wheelchair": "no"
      },
      "geometry": {
        "type": "Point",
        "coordinates": [
          2.1642261,
          41.3884327
        ]
      },
      "id": "node/2498389551"
    },
    {
      "type": "Feature",
      "properties": {
        "@id": "node/2498389557",
        "amenity": "nightclub",
        "lgbtq:men": "only",
        "name": "Metro"
      },
      "geometry": {
        "type": "Point",
        "coordinates": [
          2.1634161,
          41.3840336
        ]
      },
      "id": "node/2498389557"
    },
    {
      "type": "Feature",
      "properties": {
        "@id": "node/2522915521",
        "addr:city": "Barcelona",
        "addr:housename": "Sala Tango",
        "addr:housenumber": "94",
        "addr:postcode": "08015",
        "addr:street": "Carrer de la Diputació",
        "amenity": "nightclub",
        "name": "Sala de Fiestas Tango",
        "sexual_antiharassment_policy": "yes",
        "sexual_antiharassment_policy:name": "NoCallem",
        "website": "https://saladefiestastango.com/"
      },
      "geometry": {
        "type": "Point",
        "coordinates": [
          2.1545811,
          41.3808462
        ]
      },
      "id": "node/2522915521"
    },
    {
      "type": "Feature",
      "properties": {
        "@id": "node/2572679633",
        "amenity": "nightclub",
        "designation": "GAY",
        "name": "Organic Disco"
      },
      "geometry": {
        "type": "Point",
        "coordinates": [
          1.8080357,
          41.2359016
        ]
      },
      "id": "node/2572679633"
    },
    {
      "type": "Feature",
      "properties": {
        "@id": "node/2572683849",
        "addr:city": "Sitges",
        "addr:country": "ES",
        "addr:housename": "BUKKAKE",
        "addr:housenumber": "15",
        "addr:postcode": "08870",
        "addr:street": "Carrer de Joan Tarrida",
        "amenity": "nightclub",
        "name": "BUKKAKE"
      },
      "geometry": {
        "type": "Point",
        "coordinates": [
          1.8074586,
          41.2356837
        ]
      },
      "id": "node/2572683849"
    },
    {
      "type": "Feature",
      "properties": {
        "@id": "node/2574164624",
        "addr:housename": "TRAILER DISCO",
        "addr:housenumber": "36",
        "addr:street": "ANGEL VIDAL",
        "amenity": "nightclub",
        "name": "TRAILER DISCO"
      },
      "geometry": {
        "type": "Point",
        "coordinates": [
          1.8115515,
          41.2362426
        ]
      },
      "id": "node/2574164624"
    },
    {
      "type": "Feature",
      "properties": {
        "@id": "node/2574170186",
        "addr:city": "Sitges",
        "addr:country": "ES",
        "addr:housename": "XXL",
        "addr:housenumber": "7",
        "addr:postcode": "08870",
        "addr:street": "Carrer de Joan Tarrida",
        "amenity": "nightclub",
        "entrance": "yes",
        "name": "XXL"
      },
      "geometry": {
        "type": "Point",
        "coordinates": [
          1.8076737,
          41.2357134
        ]
      },
      "id": "node/2574170186"
    },
    {
      "type": "Feature",
      "properties": {
        "@id": "node/2782337181",
        "amenity": "nightclub",
        "name": "Discoteca Marius"
      },
      "geometry": {
        "type": "Point",
        "coordinates": [
          0.7415145,
          42.4082353
        ]
      },
      "id": "node/2782337181"
    },
    {
      "type": "Feature",
      "properties": {
        "@id": "node/2879811887",
        "addr:city": "Barcelona",
        "addr:housenumber": "5",
        "addr:postcode": "08002",
        "addr:street": "Carrer Nou de Sant Francesc",
        "amenity": "nightclub",
        "name": "Macarena Club",
        "website": "https://www.macarenaclub.com/"
      },
      "geometry": {
        "type": "Point",
        "coordinates": [
          2.1768641,
          41.3794046
        ]
      },
      "id": "node/2879811887"
    },
    {
      "type": "Feature",
      "properties": {
        "@id": "node/2910255021",
        "addr:city": "Barcelona",
        "addr:housenumber": "13",
        "addr:street": "Carrer Tuset",
        "amenity": "nightclub",
        "contact:email": "info@suttonbarcelona.com",
        "contact:mobile": "+34 667 432 759",
        "contact:website": "https://www.suttonbarcelona.com/",
        "name": "Sutton Club",
        "name:ca": "Sutton Club",
        "sexual_antiharassment_policy": "yes",
        "sexual_antiharassment_policy:name": "NoCallem"
      },
      "geometry": {
        "type": "Point",
        "coordinates": [
          2.1517438,
          41.3959489
        ]
      },
      "id": "node/2910255021"
    },
    {
      "type": "Feature",
      "properties": {
        "@id": "node/2923513235",
        "addr:city": "Barcelona",
        "addr:housenumber": "17",
        "addr:postcode": "08028",
        "addr:street": "Avinguda del Doctor Marañón",
        "amenity": "nightclub",
        "name": "Marhes The Club"
      },
      "geometry": {
        "type": "Point",
        "coordinates": [
          2.1143271,
          41.381261
        ]
      },
      "id": "node/2923513235"
    },
    {
      "type": "Feature",
      "properties": {
        "@id": "node/2955232345",
        "amenity": "nightclub",
        "name": "El Piano",
        "website": "http://www.elpianogranollers.com"
      },
      "geometry": {
        "type": "Point",
        "coordinates": [
          2.2918624,
          41.6042341
        ]
      },
      "id": "node/2955232345"
    },
    {
      "type": "Feature",
      "properties": {
        "@id": "node/2965008220",
        "amenity": "nightclub",
        "name": "Sans Música i Copes"
      },
      "geometry": {
        "type": "Point",
        "coordinates": [
          2.2904626,
          41.6093789
        ]
      },
      "id": "node/2965008220"
    },
    {
      "type": "Feature",
      "properties": {
        "@id": "node/3051021347",
        "amenity": "nightclub",
        "name": "Caprichos"
      },
      "geometry": {
        "type": "Point",
        "coordinates": [
          2.5183837,
          41.5663399
        ]
      },
      "id": "node/3051021347"
    },
    {
      "type": "Feature",
      "properties": {
        "@id": "node/3072968504",
        "amenity": "nightclub",
        "name": "Sala Apolo",
        "name:ca": "Sala Apolo",
        "sexual_antiharassment_policy": "yes",
        "sexual_antiharassment_policy:name": "NoCallem",
        "website": "https://www.sala-apolo.com",
        "wikidata": "Q20103353",
        "wikimedia_commons": "Category:Sala Apolo (Barcelona)",
        "wikipedia": "ca:Sala Apolo"
      },
      "geometry": {
        "type": "Point",
        "coordinates": [
          2.1695606,
          41.3743908
        ]
      },
      "id": "node/3072968504"
    },
    {
      "type": "Feature",
      "properties": {
        "@id": "node/3144078845",
        "addr:city": "Caldes de Montbui",
        "addr:postcode": "08140",
        "addr:street": "Carrer del Forn",
        "amenity": "nightclub",
        "name": "SÖKO Club",
        "wheelchair": "yes"
      },
      "geometry": {
        "type": "Point",
        "coordinates": [
          2.1626719,
          41.6335559
        ]
      },
      "id": "node/3144078845"
    },
    {
      "type": "Feature",
      "properties": {
        "@id": "node/3158729112",
        "addr:city": "Barcelona",
        "addr:housenumber": "59,61",
        "addr:postcode": "08024",
        "addr:street": "Carrer de Bruniquer",
        "amenity": "nightclub",
        "contact:facebook": "Almo2barBcn",
        "contact:instagram": "almo2bar_bcn",
        "contact:twitter": "Almo2bar",
        "email": "grupalmodobar@gmail.com",
        "name": "Almo2bar",
        "opening_hours": "23:00-06:00",
        "phone": "+34 93 219 93 45",
        "sexual_antiharassment_policy": "yes",
        "sexual_antiharassment_policy:name": "NoCallem",
        "website": "https://grupalmodobar.com/almo2bar/",
        "wheelchair": "no"
      },
      "geometry": {
        "type": "Point",
        "coordinates": [
          2.1621059,
          41.4056064
        ]
      },
      "id": "node/3158729112"
    },
    {
      "type": "Feature",
      "properties": {
        "@id": "node/3198070368",
        "addr:city": "L'Estartit",
        "addr:postcode": "17258",
        "addr:street": "Passatge Vela",
        "amenity": "nightclub",
        "name": "Discoteca Podium"
      },
      "geometry": {
        "type": "Point",
        "coordinates": [
          3.1953453,
          42.0521251
        ]
      },
      "id": "node/3198070368"
    },
    {
      "type": "Feature",
      "properties": {
        "@id": "node/3378334054",
        "amenity": "nightclub",
        "name": "Blow"
      },
      "geometry": {
        "type": "Point",
        "coordinates": [
          2.82018,
          41.9846468
        ]
      },
      "id": "node/3378334054"
    },
    {
      "type": "Feature",
      "properties": {
        "@id": "node/3388137153",
        "amenity": "nightclub",
        "name": "Darling Music Club"
      },
      "geometry": {
        "type": "Point",
        "coordinates": [
          1.7249177,
          41.3711469
        ]
      },
      "id": "node/3388137153"
    },
    {
      "type": "Feature",
      "properties": {
        "@id": "node/3481112677",
        "addr:housenumber": "2-4",
        "addr:postcode": "08005",
        "addr:street": "Carrer de Ramon Trias Fargas",
        "amenity": "nightclub",
        "check_date": "2023-09-28",
        "name": "Catwalk Club",
        "name:de": "Catwalk Club",
        "name:en": "Catwalk Club",
        "name:es": "Catwalk Club",
        "website": "http://cluccatwalk.net"
      },
      "geometry": {
        "type": "Point",
        "coordinates": [
          2.1967637,
          41.3858135
        ]
      },
      "id": "node/3481112677"
    },
    {
      "type": "Feature",
      "properties": {
        "@id": "node/3565417949",
        "amenity": "nightclub",
        "name": "Le Poupée"
      },
      "geometry": {
        "type": "Point",
        "coordinates": [
          2.488817,
          41.6819039
        ]
      },
      "id": "node/3565417949"
    },
    {
      "type": "Feature",
      "properties": {
        "@id": "node/3626838286",
        "addr:city": "Barcelona",
        "addr:housenumber": "770",
        "addr:postcode": "08013",
        "addr:street": "Gran Via de les Corts Catalanes",
        "amenity": "nightclub",
        "name": "Nueva Época",
        "phone": "+34 67 879 5040"
      },
      "geometry": {
        "type": "Point",
        "coordinates": [
          2.1807324,
          41.3983986
        ]
      },
      "id": "node/3626838286"
    },
    {
      "type": "Feature",
      "properties": {
        "@id": "node/3631295923",
        "addr:city": "Barcelona",
        "addr:country": "ES",
        "addr:housenumber": "15",
        "addr:place": "Barcelona",
        "addr:postcode": "08006",
        "addr:street": "Carrer de Lincoln",
        "amenity": "nightclub",
        "name": "Otto Zutz",
        "sexual_antiharassment_policy": "yes",
        "sexual_antiharassment_policy:name": "NoCallem"
      },
      "geometry": {
        "type": "Point",
        "coordinates": [
          2.1503817,
          41.4001094
        ]
      },
      "id": "node/3631295923"
    },
    {
      "type": "Feature",
      "properties": {
        "@id": "node/3723038574",
        "amenity": "nightclub",
        "name": "OXYGEN"
      },
      "geometry": {
        "type": "Point",
        "coordinates": [
          2.6514796,
          41.6153392
        ]
      },
      "id": "node/3723038574"
    },
    {
      "type": "Feature",
      "properties": {
        "@id": "node/3723038575",
        "amenity": "nightclub",
        "name": "Bob's Bar"
      },
      "geometry": {
        "type": "Point",
        "coordinates": [
          2.6546689,
          41.6115944
        ]
      },
      "id": "node/3723038575"
    },
    {
      "type": "Feature",
      "properties": {
        "@id": "node/3723038576",
        "amenity": "nightclub",
        "name": "The Frog"
      },
      "geometry": {
        "type": "Point",
        "coordinates": [
          2.6536509,
          41.6128981
        ]
      },
      "id": "node/3723038576"
    },
    {
      "type": "Feature",
      "properties": {
        "@id": "node/3892711667",
        "addr:city": "Barcelona",
        "addr:housenumber": "178",
        "addr:postcode": "08011",
        "addr:street": "Carrer de Sepúlveda",
        "amenity": "nightclub",
        "lgbtq": "primary",
        "name": "Museum",
        "opening_hours": "Fr-Sa 23:00-03:00",
        "wheelchair": "no"
      },
      "geometry": {
        "type": "Point",
        "coordinates": [
          2.162742,
          41.3831657
        ]
      },
      "id": "node/3892711667"
    },
    {
      "type": "Feature",
      "properties": {
        "@id": "node/3961122030",
        "addr:city": "Barcelona",
        "addr:housenumber": "141",
        "addr:postcode": "08014",
        "addr:street": "Carrer de Tarragona",
        "amenity": "nightclub",
        "contact:website": "http://www.safaridiscoclub.com",
        "name": "Safari Disco Club",
        "sexual_antiharassment_policy": "yes",
        "sexual_antiharassment_policy:name": "NoCallem"
      },
      "geometry": {
        "type": "Point",
        "coordinates": [
          2.1448682,
          41.3783395
        ]
      },
      "id": "node/3961122030"
    },
    {
      "type": "Feature",
      "properties": {
        "@id": "node/4054769140",
        "addr:city": "Barcelona",
        "addr:housenumber": "5",
        "addr:postcode": "08021",
        "addr:street": "Plaça de Joan Llongueras",
        "amenity": "nightclub",
        "name": "BeCool",
        "smoking": "no",
        "website": "http://www.salabecool.com/",
        "wheelchair": "no"
      },
      "geometry": {
        "type": "Point",
        "coordinates": [
          2.140693,
          41.3925144
        ]
      },
      "id": "node/4054769140"
    },
    {
      "type": "Feature",
      "properties": {
        "@id": "node/4198519573",
        "amenity": "nightclub",
        "name": "Madam's"
      },
      "geometry": {
        "type": "Point",
        "coordinates": [
          2.895702,
          42.3667512
        ]
      },
      "id": "node/4198519573"
    },
    {
      "type": "Feature",
      "properties": {
        "@id": "node/4275425288",
        "addr:city": "Salou",
        "addr:housenumber": "3",
        "addr:postcode": "43840",
        "addr:street": "Carrer de Casp",
        "amenity": "nightclub",
        "fee": "no",
        "music_genre": "rock",
        "name": "Sala Garage",
        "source": "survey",
        "toilets:wheelchair": "yes",
        "wheelchair": "limited",
        "wheelchair:description": "Step on the entry, ~5 cm. The rest of the club is accesible to wheelchair.",
        "wheelchair:description:es": "Escalón en la entrada de ~5 cm de altura. El resto del club es accesible."
      },
      "geometry": {
        "type": "Point",
        "coordinates": [
          1.1472939,
          41.0761652
        ]
      },
      "id": "node/4275425288"
    },
    {
      "type": "Feature",
      "properties": {
        "@id": "node/4350898704",
        "amenity": "nightclub",
        "name": "Villa Martini"
      },
      "geometry": {
        "type": "Point",
        "coordinates": [
          1.8758073,
          41.7648441
        ]
      },
      "id": "node/4350898704"
    },
    {
      "type": "Feature",
      "properties": {
        "@id": "node/4414443084",
        "amenity": "nightclub",
        "name": "Baobab"
      },
      "geometry": {
        "type": "Point",
        "coordinates": [
          0.649263,
          41.6135986
        ]
      },
      "id": "node/4414443084"
    },
    {
      "type": "Feature",
      "properties": {
        "@id": "node/4417861580",
        "amenity": "nightclub",
        "name": "PK2"
      },
      "geometry": {
        "type": "Point",
        "coordinates": [
          1.1782795,
          41.070882
        ]
      },
      "id": "node/4417861580"
    },
    {
      "type": "Feature",
      "properties": {
        "@id": "node/4455021191",
        "amenity": "nightclub",
        "name": "My way"
      },
      "geometry": {
        "type": "Point",
        "coordinates": [
          3.1932815,
          42.0496445
        ]
      },
      "id": "node/4455021191"
    },
    {
      "type": "Feature",
      "properties": {
        "@id": "node/4576954189",
        "addr:housenumber": "pk. 446",
        "addr:street": "Autovia A-2",
        "amenity": "nightclub",
        "name": "Venus",
        "name:ca": "Venus"
      },
      "geometry": {
        "type": "Point",
        "coordinates": [
          0.4736531,
          41.5437061
        ]
      },
      "id": "node/4576954189"
    },
    {
      "type": "Feature",
      "properties": {
        "@id": "node/4621573889",
        "addr:housenumber": "19",
        "addr:postcode": "25004",
        "addr:street": "Carrer del Riu Essera",
        "amenity": "nightclub",
        "name": "La Boite (Disco)",
        "name:ca": "La Boite (Disco)"
      },
      "geometry": {
        "type": "Point",
        "coordinates": [
          0.6277854,
          41.6220307
        ]
      },
      "id": "node/4621573889"
    },
    {
      "type": "Feature",
      "properties": {
        "@id": "node/4623057789",
        "addr:housenumber": "39",
        "addr:postcode": "25001",
        "addr:street": "Avinguda de les Garrigues",
        "amenity": "nightclub",
        "name": "Discothèque LaNuit",
        "name:ca": "Discothèque LaNuit"
      },
      "geometry": {
        "type": "Point",
        "coordinates": [
          0.635093,
          41.6089939
        ]
      },
      "id": "node/4623057789"
    },
    {
      "type": "Feature",
      "properties": {
        "@id": "node/4708595789",
        "amenity": "nightclub",
        "name": "OneOcean Club"
      },
      "geometry": {
        "type": "Point",
        "coordinates": [
          2.1862228,
          41.3799209
        ]
      },
      "id": "node/4708595789"
    },
    {
      "type": "Feature",
      "properties": {
        "@id": "node/4712026039",
        "amenity": "nightclub",
        "name": "Undeadarkclub"
      },
      "geometry": {
        "type": "Point",
        "coordinates": [
          2.1334164,
          41.3798286
        ]
      },
      "id": "node/4712026039"
    },
    {
      "type": "Feature",
      "properties": {
        "@id": "node/4773217122",
        "amenity": "nightclub",
        "name": "Rainbow Dragon",
        "name:es": "Rainbow Dragon"
      },
      "geometry": {
        "type": "Point",
        "coordinates": [
          2.172046,
          41.3852951
        ]
      },
      "id": "node/4773217122"
    },
    {
      "type": "Feature",
      "properties": {
        "@id": "node/4811486083",
        "addr:city": "Blanes",
        "addr:country": "ES",
        "addr:housenumber": "2",
        "addr:postcode": "17300",
        "addr:street": "Carrer d'Eivissa",
        "amenity": "nightclub",
        "name": "Discoteca Arena Blanes",
        "phone": "+34 972 33 57 62"
      },
      "geometry": {
        "type": "Point",
        "coordinates": [
          2.7817484,
          41.6667038
        ]
      },
      "id": "node/4811486083"
    },
    {
      "type": "Feature",
      "properties": {
        "@id": "node/4906264522",
        "addr:housenumber": "14",
        "addr:postcode": "43840",
        "addr:street": "Avinguda de Carles Buïgas",
        "amenity": "nightclub",
        "name": "kiss-salou",
        "opening_hours": "Mo-Su 20:00-07:00",
        "phone": "+34630943299",
        "website": "http://kisssalou.com"
      },
      "geometry": {
        "type": "Point",
        "coordinates": [
          1.1471486,
          41.0723521
        ]
      },
      "id": "node/4906264522"
    },
    {
      "type": "Feature",
      "properties": {
        "@id": "node/4936674924",
        "addr:housenumber": "23",
        "addr:postcode": "25004",
        "addr:street": "Carrer de Ramon Llull",
        "amenity": "nightclub",
        "name": "La Esquina",
        "name:ca": "La Esquina"
      },
      "geometry": {
        "type": "Point",
        "coordinates": [
          0.6236357,
          41.6230276
        ]
      },
      "id": "node/4936674924"
    },
    {
      "type": "Feature",
      "properties": {
        "@id": "node/4958833022",
        "amenity": "nightclub",
        "name": "Open Mind",
        "name:en": "Open Mind",
        "name:es": "Open Mind",
        "opening_hours": "Mo-Th 23:00-04:00; Fr 23:00-07:00; Sa 23:00-08:00; Su 19:00-08:00",
        "phone": "+34934510479",
        "website": "https://www.openmindbcn.com/"
      },
      "geometry": {
        "type": "Point",
        "coordinates": [
          2.1557,
          41.3849266
        ]
      },
      "id": "node/4958833022"
    },
    {
      "type": "Feature",
      "properties": {
        "@id": "node/4958833624",
        "addr:housenumber": "161",
        "addr:postcode": "08011",
        "addr:street": "Carrer de la Diputació",
        "amenity": "nightclub",
        "email": "info@nightbarcelona.net",
        "name": "Nightbarcelona",
        "name:en": "Nightbarcelona",
        "name:es": "Nightbarcelona",
        "opening_hours": "Mo-Fr 18:00-02:30; Sa-Su 18:00-03:00",
        "phone": "+34935031701",
        "website": "https://www.nightbarcelona.net/",
        "wheelchair": "no"
      },
      "geometry": {
        "type": "Point",
        "coordinates": [
          2.158811,
          41.3843686
        ]
      },
      "id": "node/4958833624"
    },
    {
      "type": "Feature",
      "properties": {
        "@id": "node/4958849921",
        "addr:city": "Barcelona",
        "addr:housenumber": "18",
        "addr:postcode": "08004",
        "addr:street": "Passatge de Prunera",
        "amenity": "nightclub",
        "lgbtq": "primary",
        "lgbtq:men": "only",
        "name": "Berlin Dark",
        "name:en": "Berlin Dark",
        "name:es": "Berlin Dark",
        "opening_hours": "Mo-Th 22:30-02:30; Fr 22:30-03:00; Sa 22:30-03:00; Su 21:30-01:30",
        "phone": "+34635773955",
        "website": "http://www.berlindark.com"
      },
      "geometry": {
        "type": "Point",
        "coordinates": [
          2.1561764,
          41.3743162
        ]
      },
      "id": "node/4958849921"
    },
    {
      "type": "Feature",
      "properties": {
        "@id": "node/4958889874",
        "addr:housenumber": "2-4",
        "addr:postcode": "08007",
        "addr:street": "Rambla de Catalunya",
        "amenity": "nightclub",
        "name": "The Black Room",
        "name:en": "The Black Room",
        "name:es": "The Black Room",
        "opening_hours": "Sa-Su 23:00-05:00"
      },
      "geometry": {
        "type": "Point",
        "coordinates": [
          2.1682772,
          41.3877311
        ]
      },
      "id": "node/4958889874"
    },
    {
      "type": "Feature",
      "properties": {
        "@id": "node/5052323721",
        "addr:city": "Barcelona",
        "addr:housenumber": "30-32",
        "addr:street": "Carrer de la Providència",
        "amenity": "nightclub",
        "min_age": "18",
        "name": "Continental",
        "name:ca": "Continental"
      },
      "geometry": {
        "type": "Point",
        "coordinates": [
          2.1564886,
          41.4062568
        ]
      },
      "id": "node/5052323721"
    },
    {
      "type": "Feature",
      "properties": {
        "@id": "node/5206544217",
        "amenity": "nightclub",
        "name": "Caribe Caliente",
        "name:es": "Caribe Caliente"
      },
      "geometry": {
        "type": "Point",
        "coordinates": [
          2.1148664,
          41.3744995
        ]
      },
      "id": "node/5206544217"
    },
    {
      "type": "Feature",
      "properties": {
        "@id": "node/5208411221",
        "amenity": "nightclub",
        "name": "Pilu",
        "name:es": "Pilu"
      },
      "geometry": {
        "type": "Point",
        "coordinates": [
          1.8722298,
          41.5360616
        ]
      },
      "id": "node/5208411221"
    },
    {
      "type": "Feature",
      "properties": {
        "@id": "node/5274587720",
        "addr:city": "Viladecavalls",
        "addr:postcode": "08232",
        "amenity": "nightclub",
        "name": "Tarumba"
      },
      "geometry": {
        "type": "Point",
        "coordinates": [
          1.9552362,
          41.5556568
        ]
      },
      "id": "node/5274587720"
    },
    {
      "type": "Feature",
      "properties": {
        "@id": "node/5539845612",
        "amenity": "nightclub",
        "name": "Zahara Cocktail Club"
      },
      "geometry": {
        "type": "Point",
        "coordinates": [
          2.1894771,
          41.383278
        ]
      },
      "id": "node/5539845612"
    },
    {
      "type": "Feature",
      "properties": {
        "@id": "node/5554720357",
        "amenity": "nightclub",
        "name": "Razzmatazz sales 2 & 3",
        "name:ca": "Razzmatazz sales 2 i 3",
        "opening_hours": "\"Depending on the concert\"",
        "sexual_antiharassment_policy": "yes",
        "sexual_antiharassment_policy:name": "NoCallem",
        "smoking": "outside"
      },
      "geometry": {
        "type": "Point",
        "coordinates": [
          2.1910762,
          41.3972784
        ]
      },
      "id": "node/5554720357"
    },
    {
      "type": "Feature",
      "properties": {
        "@id": "node/5663248080",
        "addr:street": "La Rambla, el Raval",
        "amenity": "nightclub",
        "name": "R33"
      },
      "geometry": {
        "type": "Point",
        "coordinates": [
          2.1749439,
          41.3788563
        ]
      },
      "id": "node/5663248080"
    },
    {
      "type": "Feature",
      "properties": {
        "@id": "node/5663251369",
        "addr:street": "Plaça de la Font",
        "amenity": "nightclub",
        "name": "La Terazza"
      },
      "geometry": {
        "type": "Point",
        "coordinates": [
          2.149236,
          41.3689262
        ]
      },
      "id": "node/5663251369"
    },
    {
      "type": "Feature",
      "properties": {
        "@id": "node/5731338766",
        "addr:city": "Reus",
        "addr:housenumber": "16",
        "addr:street": "Carrer de Vilar",
        "amenity": "nightclub",
        "name": "L'Hangar",
        "phone": "+34629667783"
      },
      "geometry": {
        "type": "Point",
        "coordinates": [
          1.1081857,
          41.1561515
        ]
      },
      "id": "node/5731338766"
    },
    {
      "type": "Feature",
      "properties": {
        "@id": "node/5732090471",
        "amenity": "nightclub",
        "name": "Opium"
      },
      "geometry": {
        "type": "Point",
        "coordinates": [
          2.7377454,
          41.6404997
        ]
      },
      "id": "node/5732090471"
    },
    {
      "type": "Feature",
      "properties": {
        "@id": "node/5732554644",
        "amenity": "nightclub",
        "name": "La Nuit de Reus",
        "phone": "+34 629 667 783"
      },
      "geometry": {
        "type": "Point",
        "coordinates": [
          1.1092357,
          41.1561845
        ]
      },
      "id": "node/5732554644"
    },
    {
      "type": "Feature",
      "properties": {
        "@id": "node/5810830020",
        "amenity": "nightclub",
        "name": "La Terrassa",
        "name:ca": "La Terrassa"
      },
      "geometry": {
        "type": "Point",
        "coordinates": [
          2.045612,
          41.3822326
        ]
      },
      "id": "node/5810830020"
    },
    {
      "type": "Feature",
      "properties": {
        "@id": "node/5810830026",
        "amenity": "nightclub",
        "name": "Els Pagessos"
      },
      "geometry": {
        "type": "Point",
        "coordinates": [
          2.0466608,
          41.3811117
        ]
      },
      "id": "node/5810830026"
    },
    {
      "type": "Feature",
      "properties": {
        "@id": "node/5823400553",
        "amenity": "nightclub",
        "name": "Mint Salou"
      },
      "geometry": {
        "type": "Point",
        "coordinates": [
          1.1466669,
          41.0717376
        ]
      },
      "id": "node/5823400553"
    },
    {
      "type": "Feature",
      "properties": {
        "@id": "node/5844899005",
        "addr:city": "Tordera",
        "addr:housenumber": "2",
        "addr:postcode": "08490",
        "addr:street": "Carrer de Vallplana",
        "amenity": "nightclub",
        "name": "Club Diana"
      },
      "geometry": {
        "type": "Point",
        "coordinates": [
          2.7221395,
          41.6894962
        ]
      },
      "id": "node/5844899005"
    },
    {
      "type": "Feature",
      "properties": {
        "@id": "node/5979906603",
        "amenity": "nightclub",
        "name": "Blau",
        "name:ca": "Blau"
      },
      "geometry": {
        "type": "Point",
        "coordinates": [
          0.7858469,
          40.8927045
        ]
      },
      "id": "node/5979906603"
    },
    {
      "type": "Feature",
      "properties": {
        "@id": "node/6002121988",
        "amenity": "nightclub",
        "name": "Disco Revolution"
      },
      "geometry": {
        "type": "Point",
        "coordinates": [
          2.8408883,
          41.7002784
        ]
      },
      "id": "node/6002121988"
    },
    {
      "type": "Feature",
      "properties": {
        "@id": "node/6002139097",
        "amenity": "nightclub",
        "name": "Disco Hollywood"
      },
      "geometry": {
        "type": "Point",
        "coordinates": [
          2.8453883,
          41.7034872
        ]
      },
      "id": "node/6002139097"
    },
    {
      "type": "Feature",
      "properties": {
        "@id": "node/6038913886",
        "addr:housenumber": "36",
        "addr:street": "Carrer d'en Grassot",
        "amenity": "nightclub",
        "contact:facebook": "AlmodobarBCN",
        "contact:instagram": "almodobar_bcn",
        "contact:twitter": "Almodobarbcn",
        "email": "grupalmodobar@gmail.com",
        "name": "Almodobar",
        "phone": "+34 932073855",
        "sexual_antiharassment_policy": "yes",
        "sexual_antiharassment_policy:name": "NoCallem",
        "website": "https://grupalmodobar.com/almodobar/"
      },
      "geometry": {
        "type": "Point",
        "coordinates": [
          2.1675289,
          41.4036783
        ]
      },
      "id": "node/6038913886"
    },
    {
      "type": "Feature",
      "properties": {
        "@id": "node/6090305387",
        "addr:housenumber": "5",
        "addr:street": "Avinguda de les Corts Catalanes",
        "amenity": "nightclub",
        "name": "Moon Club"
      },
      "geometry": {
        "type": "Point",
        "coordinates": [
          2.0978593,
          41.475093
        ]
      },
      "id": "node/6090305387"
    },
    {
      "type": "Feature",
      "properties": {
        "@id": "node/6139033077",
        "amenity": "nightclub",
        "name": "Dixi 724",
        "name:ca": "Dixi 724",
        "smoking": "outside",
        "wheelchair": "yes"
      },
      "geometry": {
        "type": "Point",
        "coordinates": [
          2.1920045,
          41.3970111
        ]
      },
      "id": "node/6139033077"
    },
    {
      "type": "Feature",
      "properties": {
        "@id": "node/6387346287",
        "addr:city": "Barcelona",
        "addr:housenumber": "246",
        "addr:postcode": "08021",
        "addr:street": "Carrer de Muntaner",
        "amenity": "nightclub",
        "name": "Luz de Gas",
        "sexual_antiharassment_policy": "yes",
        "sexual_antiharassment_policy:name": "NoCallem",
        "smoking": "no",
        "wikidata": "Q11934306",
        "wikimedia_commons": "Category:Luz de Gas",
        "wikipedia": "ca:Luz de Gas"
      },
      "geometry": {
        "type": "Point",
        "coordinates": [
          2.1491592,
          41.3945976
        ]
      },
      "id": "node/6387346287"
    },
    {
      "type": "Feature",
      "properties": {
        "@id": "node/6430305257",
        "addr:city": "Barcelona",
        "addr:housenumber": "441",
        "addr:postcode": "08033",
        "addr:street": "Via Favència",
        "amenity": "nightclub",
        "name": "Rock'N'Trini"
      },
      "geometry": {
        "type": "Point",
        "coordinates": [
          2.1902067,
          41.4469745
        ]
      },
      "id": "node/6430305257"
    },
    {
      "type": "Feature",
      "properties": {
        "@id": "node/6528443619",
        "addr:housenumber": "26",
        "addr:postcode": "25008",
        "addr:street": "Carrer d'Aribau",
        "amenity": "nightclub",
        "lgbtq": "primary",
        "name": "G-Bar Lleida",
        "opening_hours": "We 19:00-01:00; Th 19:00-02:30; Fr,Sa 19:00-03:00; Su 19:00-01:00; Mo off, Tu 19:00-01:00",
        "phone": "+34 973 67 44 91",
        "website": "https://g-bar-lleida.negocio.site/"
      },
      "geometry": {
        "type": "Point",
        "coordinates": [
          0.6190546,
          41.6206898
        ]
      },
      "id": "node/6528443619"
    },
    {
      "type": "Feature",
      "properties": {
        "@id": "node/6543118810",
        "addr:city": "Barcelona",
        "addr:housenumber": "145",
        "addr:street": "Carrer Nou de la Rambla",
        "amenity": "nightclub",
        "check_date": "2023-07-18",
        "name": "Plataforma",
        "sexual_antiharassment_policy": "yes",
        "sexual_antiharassment_policy:name": "NoCallem",
        "smoking": "no"
      },
      "geometry": {
        "type": "Point",
        "coordinates": [
          2.1680013,
          41.3728751
        ]
      },
      "id": "node/6543118810"
    },
    {
      "type": "Feature",
      "properties": {
        "@id": "node/6680447019",
        "amenity": "nightclub",
        "name": "Londoner",
        "smoking": "outside"
      },
      "geometry": {
        "type": "Point",
        "coordinates": [
          2.8448045,
          41.6985553
        ]
      },
      "id": "node/6680447019"
    },
    {
      "type": "Feature",
      "properties": {
        "@id": "node/6680456745",
        "amenity": "nightclub",
        "name": "St.Trop'",
        "website": "https://www.sttrop.com/"
      },
      "geometry": {
        "type": "Point",
        "coordinates": [
          2.8441957,
          41.6978514
        ]
      },
      "id": "node/6680456745"
    },
    {
      "type": "Feature",
      "properties": {
        "@id": "node/6738537525",
        "addr:housenumber": "6",
        "addr:street": "Carrer de la Conca de Barberà",
        "amenity": "nightclub",
        "name": "Discoteca la Masia"
      },
      "geometry": {
        "type": "Point",
        "coordinates": [
          1.4119108,
          41.1505651
        ]
      },
      "id": "node/6738537525"
    },
    {
      "type": "Feature",
      "properties": {
        "@id": "node/6854723168",
        "addr:housenumber": "327",
        "addr:street": "Carrer de Corsega",
        "amenity": "nightclub",
        "name": "Imperator",
        "phone": "+34932 374322",
        "wheelchair": "no"
      },
      "geometry": {
        "type": "Point",
        "coordinates": [
          2.1600197,
          41.3972085
        ]
      },
      "id": "node/6854723168"
    },
    {
      "type": "Feature",
      "properties": {
        "@id": "node/6938863407",
        "addr:housenumber": "16",
        "addr:postcode": "43440",
        "addr:street": "Avinguda de Catalunya",
        "amenity": "nightclub",
        "name": "Disco Xenon"
      },
      "geometry": {
        "type": "Point",
        "coordinates": [
          1.0987515,
          41.3953824
        ]
      },
      "id": "node/6938863407"
    },
    {
      "type": "Feature",
      "properties": {
        "@id": "node/7028817097",
        "addr:city": "Badalona",
        "addr:housenumber": "44",
        "addr:postcode": "08911",
        "addr:street": "Carrer de Ramon Martí Alsina",
        "amenity": "nightclub",
        "email": "info@espaititus.cat",
        "name": "Espai Titus",
        "name:ca": "Espai Titus",
        "operator": "Grup Titus",
        "website": "https://espaititus.cat/"
      },
      "geometry": {
        "type": "Point",
        "coordinates": [
          2.2615126,
          41.459907
        ]
      },
      "id": "node/7028817097"
    },
    {
      "type": "Feature",
      "properties": {
        "@id": "node/7031442195",
        "addr:city": "Girona",
        "addr:housenumber": "12",
        "addr:postcode": "17001",
        "addr:street": "Carrer de Figuerola",
        "amenity": "nightclub",
        "name": "Gatzara",
        "opening_hours": "We-Th 23:00-05:00; Fr-Sa 23:00-06:00"
      },
      "geometry": {
        "type": "Point",
        "coordinates": [
          2.8215841,
          41.9858892
        ]
      },
      "id": "node/7031442195"
    },
    {
      "type": "Feature",
      "properties": {
        "@id": "node/7042784186",
        "addr:housenumber": "13",
        "addr:postcode": "08038",
        "addr:street": "Av. Francesc Ferrer i Guàrdia",
        "amenity": "nightclub",
        "name": "INPUT",
        "website": "https://www.inputbcn.com/"
      },
      "geometry": {
        "type": "Point",
        "coordinates": [
          2.1468564,
          41.3688468
        ]
      },
      "id": "node/7042784186"
    },
    {
      "type": "Feature",
      "properties": {
        "@id": "node/7172666371",
        "addr:housenumber": "149",
        "addr:street": "Carrer de Miquel Servet",
        "amenity": "nightclub",
        "name": "Mambo Club",
        "opening_hours": "Mo 20:00-22:00; Tu, We 19:00-23:00; Th 20:00-02:30; Fr 18:00-03:30; Sa 23:00-03:30; Su 19:00-01:00",
        "phone": "+34935390509"
      },
      "geometry": {
        "type": "Point",
        "coordinates": [
          2.2401134,
          41.4462226
        ]
      },
      "id": "node/7172666371"
    },
    {
      "type": "Feature",
      "properties": {
        "@id": "node/7847753959",
        "addr:city": "Vilanova i la Geltrú",
        "addr:postcode": "08800",
        "addr:street": "Plaça del Trajo de Garbí",
        "amenity": "nightclub",
        "description": "Discoteca, Restaurante, Ocio",
        "email": "info@ladaurada.es",
        "name": "La Daurada",
        "nohousenumber": "yes",
        "parking": "yes",
        "phone": "+34 637199318",
        "website": "https://www.ladauradabeachclub.com/"
      },
      "geometry": {
        "type": "Point",
        "coordinates": [
          1.7278982,
          41.2099197
        ]
      },
      "id": "node/7847753959"
    },
    {
      "type": "Feature",
      "properties": {
        "@id": "node/7896965036",
        "amenity": "nightclub",
        "name": "Beach Club",
        "source": "https://www.beach-club.de/club"
      },
      "geometry": {
        "type": "Point",
        "coordinates": [
          3.1980119,
          42.2460236
        ]
      },
      "id": "node/7896965036"
    },
    {
      "type": "Feature",
      "properties": {
        "@id": "node/8658397927",
        "addr:housenumber": "242",
        "addr:street": "Carrer d'Aribau",
        "amenity": "nightclub",
        "contact:website": "https://www.discotecabarrokos.com/",
        "name": "Barroko's"
      },
      "geometry": {
        "type": "Point",
        "coordinates": [
          2.1497718,
          41.3957578
        ]
      },
      "id": "node/8658397927"
    },
    {
      "type": "Feature",
      "properties": {
        "@id": "node/8685951182",
        "addr:housenumber": "230",
        "addr:street": "Carrer d'Aribau",
        "amenity": "nightclub",
        "contact:email": "hola@grupocostabreve.com",
        "contact:phone": "+34 93 0241184",
        "contact:website": "https://grupocostabreve.com/",
        "name": "Costa Breve",
        "opening_hours": "Th 00:00-05:00; Fr,Sa 00:00-06:00"
      },
      "geometry": {
        "type": "Point",
        "coordinates": [
          2.1503847,
          41.3952962
        ]
      },
      "id": "node/8685951182"
    },
    {
      "type": "Feature",
      "properties": {
        "@id": "node/9076494634",
        "addr:housenumber": "32",
        "addr:postcode": "08911",
        "addr:street": "Carrer de Ramon Martí Alsina",
        "amenity": "nightclub",
        "email": "sarau@sarau08911.com",
        "name": "Sarau 08911",
        "name:ca": "Sarau 08911",
        "phone": "+34609774579",
        "smoking": "no",
        "website": "https://www.sarau08911.com"
      },
      "geometry": {
        "type": "Point",
        "coordinates": [
          2.2620468,
          41.4593959
        ]
      },
      "id": "node/9076494634"
    },
    {
      "type": "Feature",
      "properties": {
        "@id": "node/9570867615",
        "addr:city": "Mataró",
        "addr:housenumber": "6",
        "addr:postcode": "08302",
        "addr:street": "Carrer Serra i Moret",
        "amenity": "nightclub",
        "name": "CLAP Mataró",
        "opening_hours": "Fr 00:00-5:30; Sa 00:00-5:00",
        "smoking": "no"
      },
      "geometry": {
        "type": "Point",
        "coordinates": [
          2.4314215,
          41.5335826
        ]
      },
      "id": "node/9570867615"
    },
    {
      "type": "Feature",
      "properties": {
        "@id": "node/9573716408",
        "amenity": "nightclub",
        "name": "Tajator"
      },
      "geometry": {
        "type": "Point",
        "coordinates": [
          2.4307975,
          41.532801
        ]
      },
      "id": "node/9573716408"
    },
    {
      "type": "Feature",
      "properties": {
        "@id": "node/9800778917",
        "amenity": "nightclub",
        "name": "Ilusion"
      },
      "geometry": {
        "type": "Point",
        "coordinates": [
          2.1472514,
          41.3842012
        ]
      },
      "id": "node/9800778917"
    },
    {
      "type": "Feature",
      "properties": {
        "@id": "node/9801832818",
        "addr:housenumber": "214",
        "addr:street": "Carrer d'Entença",
        "amenity": "nightclub",
        "name": "Skylab"
      },
      "geometry": {
        "type": "Point",
        "coordinates": [
          2.1430297,
          41.3855135
        ]
      },
      "id": "node/9801832818"
    },
    {
      "type": "Feature",
      "properties": {
        "@id": "node/9807002422",
        "amenity": "nightclub",
        "name": "Genius"
      },
      "geometry": {
        "type": "Point",
        "coordinates": [
          2.1420577,
          41.3726526
        ]
      },
      "id": "node/9807002422"
    },
    {
      "type": "Feature",
      "properties": {
        "@id": "node/9823573921",
        "amenity": "nightclub",
        "name": "Twenties"
      },
      "geometry": {
        "type": "Point",
        "coordinates": [
          2.1580101,
          41.3936124
        ]
      },
      "id": "node/9823573921"
    },
    {
      "type": "Feature",
      "properties": {
        "@id": "node/9868296417",
        "addr:housenumber": "8",
        "amenity": "nightclub",
        "name": "Pink Lady"
      },
      "geometry": {
        "type": "Point",
        "coordinates": [
          2.1461014,
          41.3902898
        ]
      },
      "id": "node/9868296417"
    },
    {
      "type": "Feature",
      "properties": {
        "@id": "node/9942706642",
        "addr:city": "Lleida",
        "addr:postcode": "25001",
        "addr:street": "Carrer de Guillem de Bessiers",
        "amenity": "nightclub",
        "name": "Sala Manolita"
      },
      "geometry": {
        "type": "Point",
        "coordinates": [
          0.6222577,
          41.6059146
        ]
      },
      "id": "node/9942706642"
    },
    {
      "type": "Feature",
      "properties": {
        "@id": "node/9947913817",
        "amenity": "nightclub",
        "name": "Club Soda",
        "survey:date": "2022-08-11"
      },
      "geometry": {
        "type": "Point",
        "coordinates": [
          2.1885695,
          41.375239
        ]
      },
      "id": "node/9947913817"
    },
    {
      "type": "Feature",
      "properties": {
        "@id": "node/9974860323",
        "amenity": "nightclub",
        "name": "Black & White"
      },
      "geometry": {
        "type": "Point",
        "coordinates": [
          3.0685285,
          41.8195764
        ]
      },
      "id": "node/9974860323"
    },
    {
      "type": "Feature",
      "properties": {
        "@id": "node/9989243217",
        "amenity": "nightclub",
        "name": "Laut"
      },
      "geometry": {
        "type": "Point",
        "coordinates": [
          2.1697111,
          41.3737857
        ]
      },
      "id": "node/9989243217"
    },
    {
      "type": "Feature",
      "properties": {
        "@id": "node/10091572577",
        "addr:housenumber": "1",
        "addr:street": "Carrer de Moià",
        "amenity": "nightclub",
        "name": "La Biblio"
      },
      "geometry": {
        "type": "Point",
        "coordinates": [
          2.1521881,
          41.3954764
        ]
      },
      "id": "node/10091572577"
    },
    {
      "type": "Feature",
      "properties": {
        "@id": "node/10286280385",
        "amenity": "nightclub",
        "name": "Smile"
      },
      "geometry": {
        "type": "Point",
        "coordinates": [
          0.8142304,
          41.7885929
        ]
      },
      "id": "node/10286280385"
    },
    {
      "type": "Feature",
      "properties": {
        "@id": "node/10608108105",
        "addr:housenumber": "17",
        "addr:street": "Ronda Sud",
        "amenity": "nightclub",
        "name": "La Sonora"
      },
      "geometry": {
        "type": "Point",
        "coordinates": [
          2.977215,
          42.2621292
        ]
      },
      "id": "node/10608108105"
    },
    {
      "type": "Feature",
      "properties": {
        "@id": "node/10649981205",
        "addr:housenumber": "19-21",
        "addr:postcode": "08010",
        "amenity": "nightclub",
        "name": "Arena",
        "name:en": "Arena Xperience",
        "name:es": "Arena Xperience",
        "name:fr": "Arena Xperience",
        "opening_hours": "Su-Th 23:59-05:00; Fr-Sa 23:59-06:00",
        "phone": "+34934875140",
        "website": "https://grupoarena.com/"
      },
      "geometry": {
        "type": "Point",
        "coordinates": [
          2.1739427,
          41.3895686
        ]
      },
      "id": "node/10649981205"
    },
    {
      "type": "Feature",
      "properties": {
        "@id": "node/10702049597",
        "amenity": "nightclub",
        "check_date:opening_hours": "2023-03-01",
        "contact:facebook": "https://m.facebook.com/100083138030328/",
        "contact:twitter": "https://twitter.com/oceaniclarapita",
        "email": "oceanicnightclub@gmail.com",
        "level": "0",
        "name": "Oceanic",
        "opening_hours:signed": "no",
        "outdoor_seating": "yes",
        "phone": "+34 673 69 04 08",
        "website": "https://oceaniclarapita.com/",
        "wheelchair": "yes"
      },
      "geometry": {
        "type": "Point",
        "coordinates": [
          0.5952862,
          40.6175764
        ]
      },
      "id": "node/10702049597"
    },
    {
      "type": "Feature",
      "properties": {
        "@id": "node/10994182152",
        "addr:housenumber": "102",
        "addr:postcode": "08800",
        "addr:street": "Rambla de Salvador Samà",
        "amenity": "nightclub",
        "email": "event_lizard@hotmail.com",
        "name": "Lizard",
        "phone": "+34 649207028"
      },
      "geometry": {
        "type": "Point",
        "coordinates": [
          1.7240904,
          41.220474
        ]
      },
      "id": "node/10994182152"
    },
    {
      "type": "Feature",
      "properties": {
        "@id": "node/10994607560",
        "addr:housenumber": "5",
        "addr:postcode": "08800",
        "addr:street": "Carrer de Cuba",
        "amenity": "nightclub",
        "email": "fsiles51@hotmail.com",
        "name": "Music Bar Siles",
        "phone": "+34 938166102"
      },
      "geometry": {
        "type": "Point",
        "coordinates": [
          1.7256461,
          41.2211923
        ]
      },
      "id": "node/10994607560"
    },
    {
      "type": "Feature",
      "properties": {
        "@id": "node/10996125943",
        "addr:door": "A",
        "addr:floor": "0",
        "addr:housenumber": "16",
        "addr:postcode": "08800",
        "addr:street": "Camí de la Masia d'en Frederic",
        "amenity": "nightclub",
        "contact:phone": "643257553",
        "contact:website": "https://candydiscopub.simplesite.com/",
        "name": "Bar Candy (disco-pub)",
        "source": "Opendata Ajuntament de Vilanova i la Geltrú",
        "source:date": "2015-03-15"
      },
      "geometry": {
        "type": "Point",
        "coordinates": [
          1.7252988,
          41.2296913
        ]
      },
      "id": "node/10996125943"
    },
    {
      "type": "Feature",
      "properties": {
        "@id": "node/11020624607",
        "addr:housenumber": "27",
        "addr:postcode": "08800",
        "addr:street": "Carrer de la Llibertat",
        "amenity": "nightclub",
        "email": "bailoteca2010@hotmail.com",
        "name": "Saoco",
        "name:-2020": "Bailoteca",
        "phone": "+34 931886050"
      },
      "geometry": {
        "type": "Point",
        "coordinates": [
          1.7277313,
          41.2218445
        ]
      },
      "id": "node/11020624607"
    },
    {
      "type": "Feature",
      "properties": {
        "@id": "node/11037494869",
        "addr:housenumber": "42",
        "addr:postcode": "08800",
        "addr:street": "Carrer de la Unió",
        "amenity": "nightclub",
        "name": "Arcs Music Club"
      },
      "geometry": {
        "type": "Point",
        "coordinates": [
          1.7271825,
          41.225534
        ]
      },
      "id": "node/11037494869"
    },
    {
      "type": "Feature",
      "properties": {
        "@id": "node/11077789693",
        "addr:housenumber": "77",
        "addr:postcode": "08800",
        "addr:street": "Carrer del Correu",
        "amenity": "nightclub",
        "name": "Nits",
        "phone": "+34 938140077"
      },
      "geometry": {
        "type": "Point",
        "coordinates": [
          1.7281178,
          41.2222494
        ]
      },
      "id": "node/11077789693"
    },
    {
      "type": "Feature",
      "properties": {
        "@id": "node/11077789694",
        "addr:housenumber": "80",
        "addr:postcode": "08800",
        "addr:street": "Carrer del Correu",
        "amenity": "nightclub",
        "name": "Music Eclipse"
      },
      "geometry": {
        "type": "Point",
        "coordinates": [
          1.7280305,
          41.2219537
        ]
      },
      "id": "node/11077789694"
    },
    {
      "type": "Feature",
      "properties": {
        "@id": "node/11195755850",
        "addr:housenumber": "13",
        "addr:street": "Passeig de les roques ",
        "amenity": "nightclub",
        "name": "BoB’s Disco & Bar"
      },
      "geometry": {
        "type": "Point",
        "coordinates": [
          2.6527695,
          41.610929
        ]
      },
      "id": "node/11195755850"
    },
    {
      "type": "Feature",
      "properties": {
        "@id": "node/11195755851",
        "addr:city": "Calella",
        "addr:country": "ES",
        "addr:housenumber": "36",
        "addr:street": "Jovara",
        "amenity": "nightclub",
        "name": "disco phoenix"
      },
      "geometry": {
        "type": "Point",
        "coordinates": [
          2.6567388,
          41.6120558
        ]
      },
      "id": "node/11195755851"
    },
    {
      "type": "Feature",
      "properties": {
        "@id": "node/11195786653",
        "addr:city": "calella",
        "addr:housenumber": "21",
        "addr:street": "Carrer de Valldebanador",
        "amenity": "nightclub",
        "name": "Discoteca Kauai"
      },
      "geometry": {
        "type": "Point",
        "coordinates": [
          2.6516064,
          41.6139173
        ]
      },
      "id": "node/11195786653"
    },
    {
      "type": "Feature",
      "properties": {
        "@id": "node/11446001772",
        "addr:housenumber": "35 BX",
        "addr:postcode": "08800",
        "addr:street": "Passeig Marítim de Ribes Roges",
        "amenity": "nightclub",
        "name": "Sala de festes Yaya",
        "opening_date": "2024-06-01"
      },
      "geometry": {
        "type": "Point",
        "coordinates": [
          1.7165404,
          41.2123794
        ]
      },
      "id": "node/11446001772"
    },
    {
      "type": "Feature",
      "properties": {
        "@id": "node/11690535934",
        "addr:city": "Barcelona",
        "addr:housenumber": "171",
        "addr:postcode": "08036",
        "addr:street": "Carrer de Casanova",
        "amenity": "nightclub",
        "name": "La Fira Casanova",
        "website": "https://lafiragroup.com"
      },
      "geometry": {
        "type": "Point",
        "coordinates": [
          2.1500484,
          41.3918937
        ]
      },
      "id": "node/11690535934"
    }
  ]
}